GLOBALSTAR M067         
1 32263U 07048A   24196.59936587 -.00000030  00000+0  50258-3 0  9995
2 32263  51.9742 303.7269 0000540  33.4540 339.9950 12.40649471767583
GLOBALSTAR M070         
1 32264U 07048B   24196.05007264 -.00000076  00000+0  15354-3 0  9996
2 32264  51.9757  78.5885 0001057  66.6611  82.1757 12.62295723770961
GLOBALSTAR M066         
1 32265U 07048C   24196.53638905 -.00000101  00000+0  15988-4 0  9995
2 32265  51.9688 299.0692 0000743 166.8894 205.4755 12.62264850773292
GLOBALSTAR M068         
1 32266U 07048D   24196.51489885 -.00000084  00000+0  11294-3 0  9990
2 32266  51.9870 251.5725 0001237 125.5560  14.3358 12.62794094774898
GLOBALSTAR M079         
1 37188U 10054A   24196.48119220 -.00000097  00000+0  36016-4 0  9992
2 37188  52.0044  87.8164 0000485  41.3834 129.8143 12.62261552633808
GLOBALSTAR M077         
1 37191U 10054D   24196.57212487 -.00000102  00000+0  10056-4 0  9998
2 37191  52.0084  43.8140 0000876  76.0489 328.2412 12.62261281634519
